ORBCOMM FM115           
1 41186U 15081H   26021.49110611  .00001368  00000+0  29834-3 0  9995
2 41186  46.9987  80.9237 0001441 302.6231  57.4518 14.63009404539739
ORBCOMM FM108           
1 41187U 15081J   26021.44212995  .00001384  00000+0  33040-3 0  9991
2 41187  47.0041 155.8882 0003268 237.8600 122.1968 14.58646200538653
ORBCOMM FM117           
1 41188U 15081K   26021.40733492  .00001109  00000+0  27188-3 0  9999
2 41188  47.0002 154.7313 0003717 243.2787 116.7719 14.58662327538699
ORBCOMM FM116           
1 41189U 15081L   26021.31938753  .00001076  00000+0  26519-3 0  9997
2 41189  47.0011 244.9262 0001217 105.9958 254.1061 14.58614203537496
