<?xml version="1.0" encoding="UTF-8"?>
<ndm xmlns:xsi="http://www.w3.org/2001/XMLSchema-instance" xsi:noNamespaceSchemaLocation="https://sanaregistry.org/r/ndmxml_unqualified/ndmxml-2.0.0-master-2.0.xsd">
<omm id="CCSDS_OMM_VERS" version="2.0">
<header><CREATION_DATE/><ORIGINATOR/></header><body><segment><metadata><OBJECT_NAME>ORBCOMM FM115</OBJECT_NAME><OBJECT_ID>2015-081H</OBJECT_ID><CENTER_NAME>EARTH</CENTER_NAME><REF_FRAME>TEME</REF_FRAME><TIME_SYSTEM>UTC</TIME_SYSTEM><MEAN_ELEMENT_THEORY>SGP4</MEAN_ELEMENT_THEORY></metadata><data><meanElements><EPOCH>2026-01-21T11:47:11.567904</EPOCH><MEAN_MOTION>14.63009404</MEAN_MOTION><ECCENTRICITY>.0001441</ECCENTRICITY><INCLINATION>46.9987</INCLINATION><RA_OF_ASC_NODE>80.9237</RA_OF_ASC_NODE><ARG_OF_PERICENTER>302.6231</ARG_OF_PERICENTER><MEAN_ANOMALY>57.4518</MEAN_ANOMALY></meanElements><tleParameters><EPHEMERIS_TYPE>0</EPHEMERIS_TYPE><CLASSIFICATION_TYPE>U</CLASSIFICATION_TYPE><NORAD_CAT_ID>41186</NORAD_CAT_ID><ELEMENT_SET_NO>999</ELEMENT_SET_NO><REV_AT_EPOCH>53973</REV_AT_EPOCH><BSTAR>.29834E-3</BSTAR><MEAN_MOTION_DOT>.1368E-4</MEAN_MOTION_DOT><MEAN_MOTION_DDOT>0</MEAN_MOTION_DDOT></tleParameters></data></segment></body></omm>
<omm id="CCSDS_OMM_VERS" version="2.0">
<header><CREATION_DATE/><ORIGINATOR/></header><body><segment><metadata><OBJECT_NAME>ORBCOMM FM108</OBJECT_NAME><OBJECT_ID>2015-081J</OBJECT_ID><CENTER_NAME>EARTH</CENTER_NAME><REF_FRAME>TEME</REF_FRAME><TIME_SYSTEM>UTC</TIME_SYSTEM><MEAN_ELEMENT_THEORY>SGP4</MEAN_ELEMENT_THEORY></metadata><data><meanElements><EPOCH>2026-01-21T10:36:40.027680</EPOCH><MEAN_MOTION>14.58646200</MEAN_MOTION><ECCENTRICITY>.0003268</ECCENTRICITY><INCLINATION>47.0041</INCLINATION><RA_OF_ASC_NODE>155.8882</RA_OF_ASC_NODE><ARG_OF_PERICENTER>237.8600</ARG_OF_PERICENTER><MEAN_ANOMALY>122.1968</MEAN_ANOMALY></meanElements><tleParameters><EPHEMERIS_TYPE>0</EPHEMERIS_TYPE><CLASSIFICATION_TYPE>U</CLASSIFICATION_TYPE><NORAD_CAT_ID>41187</NORAD_CAT_ID><ELEMENT_SET_NO>999</ELEMENT_SET_NO><REV_AT_EPOCH>53865</REV_AT_EPOCH><BSTAR>.3304E-3</BSTAR><MEAN_MOTION_DOT>.1384E-4</MEAN_MOTION_DOT><MEAN_MOTION_DDOT>0</MEAN_MOTION_DDOT></tleParameters></data></segment></body></omm>
<omm id="CCSDS_OMM_VERS" version="2.0">
<header><CREATION_DATE/><ORIGINATOR/></header><body><segment><metadata><OBJECT_NAME>ORBCOMM FM117</OBJECT_NAME><OBJECT_ID>2015-081K</OBJECT_ID><CENTER_NAME>EARTH</CENTER_NAME><REF_FRAME>TEME</REF_FRAME><TIME_SYSTEM>UTC</TIME_SYSTEM><MEAN_ELEMENT_THEORY>SGP4</MEAN_ELEMENT_THEORY></metadata><data><meanElements><EPOCH>2026-01-21T09:46:33.737088</EPOCH><MEAN_MOTION>14.58662327</MEAN_MOTION><ECCENTRICITY>.0003717</ECCENTRICITY><INCLINATION>47.0002</INCLINATION><RA_OF_ASC_NODE>154.7313</RA_OF_ASC_NODE><ARG_OF_PERICENTER>243.2787</ARG_OF_PERICENTER><MEAN_ANOMALY>116.7719</MEAN_ANOMALY></meanElements><tleParameters><EPHEMERIS_TYPE>0</EPHEMERIS_TYPE><CLASSIFICATION_TYPE>U</CLASSIFICATION_TYPE><NORAD_CAT_ID>41188</NORAD_CAT_ID><ELEMENT_SET_NO>999</ELEMENT_SET_NO><REV_AT_EPOCH>53869</REV_AT_EPOCH><BSTAR>.27188E-3</BSTAR><MEAN_MOTION_DOT>.1109E-4</MEAN_MOTION_DOT><MEAN_MOTION_DDOT>0</MEAN_MOTION_DDOT></tleParameters></data></segment></body></omm>
<omm id="CCSDS_OMM_VERS" version="2.0">
<header><CREATION_DATE/><ORIGINATOR/></header><body><segment><metadata><OBJECT_NAME>ORBCOMM FM116</OBJECT_NAME><OBJECT_ID>2015-081L</OBJECT_ID><CENTER_NAME>EARTH</CENTER_NAME><REF_FRAME>TEME</REF_FRAME><TIME_SYSTEM>UTC</TIME_SYSTEM><MEAN_ELEMENT_THEORY>SGP4</MEAN_ELEMENT_THEORY></metadata><data><meanElements><EPOCH>2026-01-21T07:39:55.082592</EPOCH><MEAN_MOTION>14.58614203</MEAN_MOTION><ECCENTRICITY>.0001217</ECCENTRICITY><INCLINATION>47.0011</INCLINATION><RA_OF_ASC_NODE>244.9262</RA_OF_ASC_NODE><ARG_OF_PERICENTER>105.9958</ARG_OF_PERICENTER><MEAN_ANOMALY>254.1061</MEAN_ANOMALY></meanElements><tleParameters><EPHEMERIS_TYPE>0</EPHEMERIS_TYPE><CLASSIFICATION_TYPE>U</CLASSIFICATION_TYPE><NORAD_CAT_ID>41189</NORAD_CAT_ID><ELEMENT_SET_NO>999</ELEMENT_SET_NO><REV_AT_EPOCH>53749</REV_AT_EPOCH><BSTAR>.26519E-3</BSTAR><MEAN_MOTION_DOT>.1076E-4</MEAN_MOTION_DOT><MEAN_MOTION_DDOT>0</MEAN_MOTION_DDOT></tleParameters></data></segment></body></omm>
</ndm>
